{
  "type": "FeatureCollection",
  "features": [
    {
      "type": "Feature",
      "properties": {
        "norad_id": 22490,
        "name": "SCD 1",
        "group": "resource",
        "lat": 1.2455077246256323,
        "lon": -138.76987606362218,
        "alt_km": 723.82241618843,
        "timestamp": "2025-12-22T11:33:20.085735+00:00",
        "meta_object_name": "SCD 1",
        "meta_object_id": "1993-009B",
        "meta_epoch": "2025-12-21T17:33:16.574976",
        "meta_mean_motion": 14.46004662,
        "meta_eccentricity": 0.0042147,
        "meta_inclination": 24.9681,
        "meta_ra_of_asc_node": 223.1799,
        "meta_arg_of_pericenter": 60.1108,
        "meta_mean_anomaly": 350.9705,
        "meta_ephemeris_type": 0,
        "meta_classification_type": "U",
        "meta_norad_cat_id": 22490,
        "meta_element_set_no": 999,
        "meta_rev_at_epoch": 73540,
        "meta_bstar": 6.8233e-05,
        "meta_mean_motion_dot": 4.34e-06,
        "meta_mean_motion_ddot": 0,
        "tle_line1": "1 22490U 93009B   25355.73144184  .00000434  00000+0  68233-4 0  9996",
        "tle_line2": "2 22490  24.9681 223.1799 0042147  60.1108 350.9705 14.46004662735407"
      },
      "geometry": {
        "type": "Point",
        "coordinates": [
          -138.76987606362218,
          1.2455077246256323
        ]
      }
    },
    {
      "type": "Feature",
      "properties": {
        "norad_id": 25397,
        "name": "TECHSAT 1B (GO-32)",
        "group": "resource",
        "lat": 53.38497027248936,
        "lon": -32.38624749968353,
        "alt_km": 804.2763290599769,
        "timestamp": "2025-12-22T11:33:20.085763+00:00",
        "meta_object_name": "TECHSAT 1B (GO-32)",
        "meta_object_id": "1998-043D",
        "meta_epoch": "2025-12-21T20:07:42.087648",
        "meta_mean_motion": 14.24379411,
        "meta_eccentricity": 0.0001773,
        "meta_inclination": 98.993,
        "meta_ra_of_asc_node": 339.2611,
        "meta_arg_of_pericenter": 42.713,
        "meta_mean_anomaly": 317.4186,
        "meta_ephemeris_type": 0,
        "meta_classification_type": "U",
        "meta_norad_cat_id": 25397,
        "meta_element_set_no": 999,
        "meta_rev_at_epoch": 42608,
        "meta_bstar": 4.2995e-05,
        "meta_mean_motion_dot": 5.3e-07,
        "meta_mean_motion_ddot": 0,
        "tle_line1": "1 25397U 98043D   25355.83868157  .00000053  00000+0  42995-4 0  9996",
        "tle_line2": "2 25397  98.9930 339.2611 0001773  42.7130 317.4186 14.24379411426082"
      },
      "geometry": {
        "type": "Point",
        "coordinates": [
          -32.38624749968353,
          53.38497027248936
        ]
      }
    },
    {
      "type": "Feature",
      "properties": {
        "norad_id": 25504,
        "name": "SCD 2",
        "group": "resource",
        "lat": 6.259432968587517,
        "lon": 95.44658862006285,
        "alt_km": 728.7068361390002,
        "timestamp": "2025-12-22T11:33:20.085778+00:00",
        "meta_object_name": "SCD 2",
        "meta_object_id": "1998-060A",
        "meta_epoch": "2025-12-21T14:03:05.507424",
        "meta_mean_motion": 14.45427795,
        "meta_eccentricity": 0.0017009,
        "meta_inclination": 24.9948,
        "meta_ra_of_asc_node": 87.3516,
        "meta_arg_of_pericenter": 47.008,
        "meta_mean_anomaly": 336.2832,
        "meta_ephemeris_type": 0,
        "meta_classification_type": "U",
        "meta_norad_cat_id": 25504,
        "meta_element_set_no": 999,
        "meta_rev_at_epoch": 43460,
        "meta_bstar": 5.578e-05,
        "meta_mean_motion_dot": 3.81e-06,
        "meta_mean_motion_ddot": 0,
        "tle_line1": "1 25504U 98060A   25355.58548041  .00000381  00000+0  55780-4 0  9994",
        "tle_line2": "2 25504  24.9948  87.3516 0017009  47.0080 336.2832 14.45427795434602"
      },
      "geometry": {
        "type": "Point",
        "coordinates": [
          95.44658862006285,
          6.259432968587517
        ]
      }
    },
    {
      "type": "Feature",
      "properties": {
        "norad_id": 25757,
        "name": "DLR-TUBSAT",
        "group": "resource",
        "lat": 7.338280401922,
        "lon": 162.4200442246233,
        "alt_km": 709.9624044919592,
        "timestamp": "2025-12-22T11:33:20.085791+00:00",
        "meta_object_name": "DLR-TUBSAT",
        "meta_object_id": "1999-029B",
        "meta_epoch": "2025-12-17T13:22:10.787520",
        "meta_mean_motion": 14.52359578,
        "meta_eccentricity": 0.00141996,
        "meta_inclination": 98.6566,
        "meta_ra_of_asc_node": 336.2196,
        "meta_arg_of_pericenter": 177.8976,
        "meta_mean_anomaly": 182.2281,
        "meta_ephemeris_type": 0,
        "meta_classification_type": "U",
        "meta_norad_cat_id": 25757,
        "meta_element_set_no": 999,
        "meta_rev_at_epoch": 40688,
        "meta_bstar": 3.7650132e-05,
        "meta_mean_motion_dot": 1.05e-06,
        "meta_mean_motion_ddot": 0,
        "tle_line1": "1 25757U 99029B   25351.55706930  .00000105  00000+0  37650-4 0  9996",
        "tle_line2": "2 25757  98.6566 336.2196 0014199 177.8976 182.2281 14.52359578406886"
      },
      "geometry": {
        "type": "Point",
        "coordinates": [
          162.4200442246233,
          7.338280401922
        ]
      }
    },
    {
      "type": "Feature",
      "properties": {
        "norad_id": 25994,
        "name": "TERRA",
        "group": "resource",
        "lat": 5.361541618863687,
        "lon": -131.438483708534,
        "alt_km": 692.9233529762769,
        "timestamp": "2025-12-22T11:33:20.085803+00:00",
        "meta_object_name": "TERRA",
        "meta_object_id": "1999-068A",
        "meta_epoch": "2025-12-22T01:10:17.382720",
        "meta_mean_motion": 14.60911955,
        "meta_eccentricity": 0.0003496,
        "meta_inclination": 97.9735,
        "meta_ra_of_asc_node": 47.3911,
        "meta_arg_of_pericenter": 75.8625,
        "meta_mean_anomaly": 344.3896,
        "meta_ephemeris_type": 0,
        "meta_classification_type": "U",
        "meta_norad_cat_id": 25994,
        "meta_element_set_no": 999,
        "meta_rev_at_epoch": 38374,
        "meta_bstar": 0.0001032,
        "meta_mean_motion_dot": 4.61e-06,
        "meta_mean_motion_ddot": 0,
        "tle_line1": "1 25994U 99068A   25356.04881230  .00000461  00000+0  10320-3 0  9997",
        "tle_line2": "2 25994  97.9735  47.3911 0003496  75.8625 344.3896 14.60911955383744"
      },
      "geometry": {
        "type": "Point",
        "coordinates": [
          -131.438483708534,
          5.361541618863687
        ]
      }
    },
    {
      "type": "Feature",
      "properties": {
        "norad_id": 27004,
        "name": "MAROC-TUBSAT",
        "group": "resource",
        "lat": -48.66402335651364,
        "lon": -26.224475584595854,
        "alt_km": 991.2875823422482,
        "timestamp": "2025-12-22T11:33:20.085815+00:00",
        "meta_object_name": "MAROC-TUBSAT",
        "meta_object_id": "2001-056D",
        "meta_epoch": "2025-12-22T02:13:31.700064",
        "meta_mean_motion": 13.70253379,
        "meta_eccentricity": 0.0019207,
        "meta_inclination": 99.7916,
        "meta_ra_of_asc_node": 164.7016,
        "meta_arg_of_pericenter": 235.2941,
        "meta_mean_anomaly": 237.5857,
        "meta_ephemeris_type": 0,
        "meta_classification_type": "U",
        "meta_norad_cat_id": 27004,
        "meta_element_set_no": 999,
        "meta_rev_at_epoch": 20193,
        "meta_bstar": 2.4568e-05,
        "meta_mean_motion_dot": -2.5e-07,
        "meta_mean_motion_ddot": 0,
        "tle_line1": "1 27004U 01056D   25356.09272801 -.00000025  00000+0  24568-4 0  9991",
        "tle_line2": "2 27004  99.7916 164.7016 0019207 235.2941 237.5857 13.70253379201938"
      },
      "geometry": {
        "type": "Point",
        "coordinates": [
          -26.224475584595854,
          -48.66402335651364
        ]
      }
    },
    {
      "type": "Feature",
      "properties": {
        "norad_id": 27424,
        "name": "AQUA",
        "group": "resource",
        "lat": 78.2404510361818,
        "lon": -87.73520238195243,
        "alt_km": 679.0652007662666,
        "timestamp": "2025-12-22T11:33:20.085826+00:00",
        "meta_object_name": "AQUA",
        "meta_object_id": "2002-022A",
        "meta_epoch": "2025-12-21T22:23:22.229952",
        "meta_mean_motion": 14.61820667,
        "meta_eccentricity": 0.0001439,
        "meta_inclination": 98.405,
        "meta_ra_of_asc_node": 316.9619,
        "meta_arg_of_pericenter": 110.3776,
        "meta_mean_anomaly": 326.1362,
        "meta_ephemeris_type": 0,
        "meta_classification_type": "U",
        "meta_norad_cat_id": 27424,
        "meta_element_set_no": 999,
        "meta_rev_at_epoch": 25737,
        "meta_bstar": 0.00018434,
        "meta_mean_motion_dot": 8.71e-06,
        "meta_mean_motion_ddot": 0,
        "tle_line1": "1 27424U 02022A   25355.93289618  .00000871  00000+0  18434-3 0  9999",
        "tle_line2": "2 27424  98.4050 316.9619 0001439 110.3776 326.1362 14.61820667257372"
      },
      "geometry": {
        "type": "Point",
        "coordinates": [
          -87.73520238195243,
          78.2404510361818
        ]
      }
    }
  ]
}